OBJECT_NAME,OBJECT_ID,EPOCH,MEAN_MOTION,ECCENTRICITY,INCLINATION,RA_OF_ASC_NODE,ARG_OF_PERICENTER,MEAN_ANOMALY,EPHEMERIS_TYPE,CLASSIFICATION_TYPE,NORAD_CAT_ID,ELEMENT_SET_NO,REV_AT_EPOCH,BSTAR,MEAN_MOTION_DOT,MEAN_MOTION_DDOT
KUIPER-00601,2026-118U,2026-06-06T22:00:03.000096,15.37465996,.00050016,51.8700,102.9227,121.0976,204.0056,0,U,69285,999,231,.34799241E-3,.12619E-3,0
KUIPER-00602,2026-118V,2026-06-06T22:00:03.000096,15.37903687,.00033079,51.8699,102.8936,110.4987,229.0859,0,U,69286,999,130,.2933412E-3,.10727E-3,0
KUIPER-00603,2026-118W,2026-06-06T22:00:03.000096,15.37317353,.00058032,51.8666,102.9323,123.1489,198.9596,0,U,69287,999,226,.34395023E-3,.12408E-3,0
KUIPER-00605,2026-118X,2026-06-06T22:00:03.000096,15.36866278,.00078578,51.8654,102.9611,128.8480,179.3457,0,U,69288,999,210,.34829048E-3,.12388E-3,0
KUIPER-00606,2026-118Y,2026-06-06T22:00:03.000096,15.37555655,.00048677,51.8691,102.9160,117.1434,211.7729,0,U,69289,999,195,.33511473E-3,.12173E-3,0
KUIPER-00607,2026-118Z,2026-06-06T22:00:03.000096,15.37228759,.00065481,51.8676,102.9363,123.1942,196.5492,0,U,69290,999,191,.40188642E-3,.14527E-3,0
KUIPER-00608,2026-118AA,2026-06-06T22:00:03.000096,15.36238347,.00102062,51.8595,102.9927,144.3320,148.7029,0,U,69291,999,188,-.53028988E-2,-.186387E-2,0
KUIPER-00610,2026-118AB,2026-06-06T22:00:03.000096,15.38100721,.00030755,51.8718,102.8793,102.4677,241.5032,0,U,69292,999,180,.32304256E-3,.11932E-3,0
KUIPER-00613,2026-118AC,2026-06-06T22:00:03.000096,15.35576860,.00105764,51.8618,103.0119,152.0518,131.3750,0,U,69293,999,130,-.85357994E-2,-.289642E-2,0
KUIPER-00618,2026-118AD,2026-06-06T22:00:03.000096,15.38495765,.00022292,51.8719,102.8550,66.8298,288.4730,0,U,69294,999,130,.28301159E-3,.10541E-3,0
KUIPER-00620,2026-118AE,2026-06-06T22:00:03.000096,15.38183294,.00031378,51.8714,102.8758,90.1404,256.3310,0,U,69295,999,234,.30811063E-3,.11393E-3,0
STARLINK-37501,2026-119A,2026-06-06T22:00:03.000096,15.84019308,.00019714,97.2829,183.1659,72.7389,78.3051,0,U,69296,999,224,-.12427609E-1,-.2394685E-1,0
STARLINK-37496,2026-119B,2026-06-06T22:00:03.000096,15.81504375,.00010229,97.2833,183.1666,57.8954,93.5661,0,U,69297,999,224,-.52150803E-2,-.927834E-2,0
STARLINK-37519,2026-119C,2026-06-06T22:00:03.000096,15.83651020,.00018689,97.2834,183.1716,75.2165,87.1892,0,U,69298,999,224,-.12465915E-1,-.2364721E-1,0
STARLINK-37455,2026-119D,2026-06-06T22:00:03.000096,15.83695160,.00014646,97.2827,183.1681,66.8532,89.2715,0,U,69299,999,224,-.49171982E-2,-.965585E-2,0
STARLINK-37456,2026-119E,2026-06-06T22:00:03.000096,15.84302267,.00014429,97.2828,183.1711,87.8399,76.1978,0,U,69300,999,224,-.72462276E-2,-.142226E-1,0
STARLINK-37630,2026-119F,2026-06-06T22:00:03.000096,15.83921419,.00016465,97.2832,183.1747,75.3264,93.4925,0,U,69301,999,239,-.11421279E-1,-.2166939E-1,0
STARLINK-37804,2026-119G,2026-06-06T22:00:03.000096,15.83597424,.00017034,97.2835,183.1748,78.5155,92.8285,0,U,69302,999,239,-.12903184E-1,-.2430391E-1,0
STARLINK-37730,2026-119H,2026-06-06T22:00:03.000096,15.84946157,.00017665,97.2832,183.1766,92.7200,83.9294,0,U,69303,999,239,-.12091534E-1,-.2430074E-1,0
STARLINK-37731,2026-119J,2026-06-06T22:00:03.000096,15.84016205,.00019642,97.2833,183.1777,83.9504,95.6842,0,U,69304,999,239,-.12419697E-1,-.2393054E-1,0
STARLINK-37734,2026-119K,2026-06-06T22:00:03.000096,15.84885446,.00017409,97.2835,183.1790,78.3241,104.4398,0,U,69305,999,239,-.12088074E-1,-.2423315E-1,0
STARLINK-37701,2026-119L,2026-06-06T22:00:03.000096,15.84174784,.00017275,97.2836,183.1803,83.4946,102.5200,0,U,69306,999,239,-.12296872E-1,-.2387894E-1,0
STARLINK-37732,2026-119M,2026-06-06T22:00:03.000096,15.84106120,.00016581,97.2835,183.1820,95.6919,92.9278,0,U,69307,999,239,-.1273355E-1,-.245356E-1,0
STARLINK-37689,2026-119N,2026-06-06T22:00:03.000096,15.85312416,.00013914,97.2831,183.1830,81.2498,110.6063,0,U,69308,999,239,-.10988083E-1,-.2219456E-1,0
STARLINK-37619,2026-119P,2026-06-06T22:00:03.000096,15.85033096,.00016768,97.2833,183.1843,75.8887,120.0728,0,U,69309,999,239,-.11943242E-1,-.2412997E-1,0
STARLINK-37794,2026-119Q,2026-06-06T22:00:03.000096,15.86843119,.00018124,97.2836,183.1876,84.7831,117.4973,0,U,69310,999,239,-.1086678E-1,-.2342552E-1,0
STARLINK-37795,2026-119R,2026-06-06T22:00:03.000096,15.86948099,.00016131,97.2835,183.1879,86.1155,117.4551,0,U,69311,999,239,-.98691791E-2,-.2169205E-1,0
STARLINK-37790,2026-119S,2026-06-06T22:00:03.000096,15.87378796,.00017833,97.2835,183.1898,82.3277,125.2405,0,U,69312,999,239,-.10735182E-1,-.2370764E-1,0
STARLINK-37676,2026-119T,2026-06-06T22:00:03.000096,15.88604831,.00015748,97.2837,183.1917,79.6839,132.7726,0,U,69313,999,239,-.94194644E-2,-.2236579E-1,0
STARLINK-37617,2026-119U,2026-06-06T22:00:03.000096,15.88838576,.00015178,97.2837,183.1926,88.8069,127.0221,0,U,69314,999,239,-.89351762E-2,-.2159888E-1,0
