KUIPER-00601            
1 69285U 26118U   26157.91670139  .00012619  00000+0  34799-3 0  9998
2 69285  51.8700 102.9227 0005001 121.0976 204.0056 15.37465996  2316
KUIPER-00602            
1 69286U 26118V   26157.91670139  .00010727  00000+0  29334-3 0  9996
2 69286  51.8699 102.8936 0003307 110.4987 229.0859 15.37903687  1301
KUIPER-00603            
1 69287U 26118W   26157.91670139  .00012408  00000+0  34395-3 0  9998
2 69287  51.8666 102.9323 0005803 123.1489 198.9596 15.37317353  2265
KUIPER-00605            
1 69288U 26118X   26157.91670139  .00012388  00000+0  34829-3 0  9998
2 69288  51.8654 102.9611 0007857 128.8480 179.3457 15.36866278  2103
KUIPER-00606            
1 69289U 26118Y   26157.91670139  .00012173  00000+0  33511-3 0  9998
2 69289  51.8691 102.9160 0004867 117.1434 211.7729 15.37555655  1952
KUIPER-00607            
1 69290U 26118Z   26157.91670139  .00014527  00000+0  40189-3 0  9994
2 69290  51.8676 102.9363 0006548 123.1942 196.5492 15.37228759  1916
KUIPER-00608            
1 69291U 26118AA  26157.91670139 -.00186387  00000+0 -53029-2 0  9997
2 69291  51.8595 102.9927 0010206 144.3320 148.7029 15.36238347  1888
KUIPER-00610            
1 69292U 26118AB  26157.91670139  .00011932  00000+0  32304-3 0  9993
2 69292  51.8718 102.8793 0003075 102.4677 241.5032 15.38100721  1806
KUIPER-00613            
1 69293U 26118AC  26157.91670139 -.00289642  00000+0 -85358-2 0  9997
2 69293  51.8618 103.0119 0010576 152.0518 131.3750 15.35576860  1306
KUIPER-00618            
1 69294U 26118AD  26157.91670139  .00010541  00000+0  28301-3 0  9992
2 69294  51.8719 102.8550 0002229  66.8298 288.4730 15.38495765  1307
KUIPER-00620            
1 69295U 26118AE  26157.91670139  .00011393  00000+0  30811-3 0  9998
2 69295  51.8714 102.8758 0003137  90.1404 256.3310 15.38183294  2345
STARLINK-37501          
1 69296U 26119A   26157.91670139 -.02394685  00000+0 -12428-1 0  9994
2 69296  97.2829 183.1659 0001971  72.7389  78.3051 15.84019308  2249
STARLINK-37496          
1 69297U 26119B   26157.91670139 -.00927834  00000+0 -52151-2 0  9999
2 69297  97.2833 183.1666 0001022  57.8954  93.5661 15.81504375  2248
STARLINK-37519          
1 69298U 26119C   26157.91670139 -.02364721  00000+0 -12466-1 0  9996
2 69298  97.2834 183.1716 0001868  75.2165  87.1892 15.83651020  2249
STARLINK-37455          
1 69299U 26119D   26157.91670139 -.00965585  00000+0 -49172-2 0  9995
2 69299  97.2827 183.1681 0001464  66.8532  89.2715 15.83695160  2249
STARLINK-37456          
1 69300U 26119E   26157.91670139 -.01422260  00000+0 -72462-2 0  9995
2 69300  97.2828 183.1711 0001442  87.8399  76.1978 15.84302267  2247
STARLINK-37630          
1 69301U 26119F   26157.91670139 -.02166939  00000+0 -11421-1 0  9992
2 69301  97.2832 183.1747 0001646  75.3264  93.4925 15.83921419  2396
STARLINK-37804          
1 69302U 26119G   26157.91670139 -.02430391  00000+0 -12903-1 0  9995
2 69302  97.2835 183.1748 0001703  78.5155  92.8285 15.83597424  2396
STARLINK-37730          
1 69303U 26119H   26157.91670139 -.02430074  00000+0 -12092-1 0  9993
2 69303  97.2832 183.1766 0001766  92.7200  83.9294 15.84946157  2395
STARLINK-37731          
1 69304U 26119J   26157.91670139 -.02393054  00000+0 -12420-1 0  9995
2 69304  97.2833 183.1777 0001964  83.9504  95.6842 15.84016205  2399
STARLINK-37734          
1 69305U 26119K   26157.91670139 -.02423315  00000+0 -12088-1 0  9990
2 69305  97.2835 183.1790 0001740  78.3241 104.4398 15.84885446  2391
STARLINK-37701          
1 69306U 26119L   26157.91670139 -.02387894  00000+0 -12297-1 0  9994
2 69306  97.2836 183.1803 0001727  83.4946 102.5200 15.84174784  2399
STARLINK-37732          
1 69307U 26119M   26157.91670139 -.02453560  00000+0 -12734-1 0  9995
2 69307  97.2835 183.1820 0001658  95.6919  92.9278 15.84106120  2392
STARLINK-37689          
1 69308U 26119N   26157.91670139 -.02219456  00000+0 -10988-1 0  9999
2 69308  97.2831 183.1830 0001391  81.2498 110.6063 15.85312416  2395
STARLINK-37619          
1 69309U 26119P   26157.91670139 -.02412997  00000+0 -11943-1 0  9997
2 69309  97.2833 183.1843 0001676  75.8887 120.0728 15.85033096  2396
STARLINK-37794          
1 69310U 26119Q   26157.91670139 -.02342552  00000+0 -10867-1 0  9992
2 69310  97.2836 183.1876 0001812  84.7831 117.4973 15.86843119  2395
STARLINK-37795          
1 69311U 26119R   26157.91670139 -.02169205  00000+0 -98692-2 0  9998
2 69311  97.2835 183.1879 0001613  86.1155 117.4551 15.86948099  2397
STARLINK-37790          
1 69312U 26119S   26157.91670139 -.02370764  00000+0 -10735-1 0  9994
2 69312  97.2835 183.1898 0001783  82.3277 125.2405 15.87378796  2397
STARLINK-37676          
1 69313U 26119T   26157.91670139 -.02236579  00000+0 -94195-2 0  9993
2 69313  97.2837 183.1917 0001574  79.6839 132.7726 15.88604831  2395
STARLINK-37617          
1 69314U 26119U   26157.91670139 -.02159888  00000+0 -89352-2 0  9990
2 69314  97.2837 183.1926 0001517  88.8069 127.0221 15.88838576  2392
